[{"OBJECT_NAME":"COSMOS 2550","OBJECT_ID":"2021-056A","EPOCH":"2026-03-08T11:22:34.326624","MEAN_MOTION":15.33829151,"ECCENTRICITY":0.00083692,"INCLINATION":67.1451,"RA_OF_ASC_NODE":44.6088,"ARG_OF_PERICENTER":269.6014,"MEAN_ANOMALY":90.4182,"EPHEMERIS_TYPE":0,"CLASSIFICATION_TYPE":"U","NORAD_CAT_ID":48865,"ELEMENT_SET_NO":999,"REV_AT_EPOCH":26327,"BSTAR":-1.3338e-8,"MEAN_MOTION_DOT":-1.92e-6,"MEAN_MOTION_DDOT":0},{"OBJECT_NAME":"STARLINK-3349","OBJECT_ID":"2022-001L","EPOCH":"2026-03-09T11:24:24.163488","MEAN_MOTION":15.3598126,"ECCENTRICITY":0.00040972,"INCLINATION":53.2075,"RA_OF_ASC_NODE":124.5069,"ARG_OF_PERICENTER":337.7117,"MEAN_ANOMALY":22.3708,"EPHEMERIS_TYPE":0,"CLASSIFICATION_TYPE":"U","NORAD_CAT_ID":50813,"ELEMENT_SET_NO":999,"REV_AT_EPOCH":23102,"BSTAR":0.0012714399,"MEAN_MOTION_DOT":0.00045078,"MEAN_MOTION_DDOT":0}]
