COSMOS 2550             
1 48865U 21056A   26067.47400841 -.00000192  00000+0 -13338-7 0  9992
2 48865  67.1451  44.6088 0008369 269.6014  90.4182 15.33829151263273
STARLINK-3349           
1 50813U 22001L   26068.47527967  .00045078  00000+0  12714-2 0  9991
2 50813  53.2075 124.5069 0004097 337.7117  22.3708 15.35981260231027
